{
"type": "FeatureCollection",
"name": "Fourni_seagrass_data_topouzelis",
"crs": { "type": "name", "properties": { "name": "urn:ogc:def:crs:OGC:1.3:CRS84" } },
"features": [
{ "type": "Feature", "properties": { "FX_CODE": 375, "PATH": 181, "ROW": 34, "DATE": 20140708, "ID": 0.0, "Pres_Topo": 1 }, "geometry": { "type": "MultiPolygon", "coordinates": [ [ [ [ 26.510647590168816, 37.584918224220438 ], [ 26.51065821012709, 37.583295846710797 ], [ 26.508619590570326, 37.583287377858554 ], [ 26.508617813263527, 37.583557774059202 ], [ 26.50827804219162, 37.583556359147302 ], [ 26.508276263632226, 37.583826755321745 ], [ 26.508616035932953, 37.583828170247379 ], [ 26.508614258578653, 37.584098566423066 ], [ 26.50929380570906, 37.584101393367838 ], [ 26.509286705885359, 37.585182978055393 ], [ 26.509626484401714, 37.585184390115636 ], [ 26.509624710615419, 37.585454786269992 ], [ 26.510304270177109, 37.585457607483868 ], [ 26.510306041505544, 37.58518721130212 ], [ 26.510645820092972, 37.58518862042834 ], [ 26.510647590168816, 37.584918224220438 ] ] ] ] } },
{ "type": "Feature", "properties": { "FX_CODE": 375, "PATH": 181, "ROW": 34, "DATE": 20140708, "ID": 0.0, "Pres_Topo": 1 }, "geometry": { "type": "MultiPolygon", "coordinates": [ [ [ [ 26.507256946872737, 37.583822504677158 ], [ 26.507258729118618, 37.583552108543962 ], [ 26.507598500119155, 37.5835535263897 ], [ 26.507600281112403, 37.583283130230249 ], [ 26.506241202168503, 37.583277453034711 ], [ 26.506237630327622, 37.583818245230951 ], [ 26.506577402485476, 37.583819666024304 ], [ 26.507256946872737, 37.583822504677158 ] ] ] ] } },
{ "type": "Feature", "properties": { "FX_CODE": 375, "PATH": 181, "ROW": 34, "DATE": 20140708, "ID": 0.0, "Pres_Topo": 1 }, "geometry": { "type": "MultiPolygon", "coordinates": [ [ [ [ 26.54799380897515, 37.589934411746171 ], [ 26.546974403082576, 37.589930503534589 ], [ 26.546982597625053, 37.588578516390598 ], [ 26.547322393421368, 37.588579820042746 ], [ 26.547325668626744, 37.588039025072476 ], [ 26.546985875288705, 37.588037721445644 ], [ 26.546989152864736, 37.587496926450761 ], [ 26.545969780356735, 37.587493009777525 ], [ 26.545966495406066, 37.58803380469638 ], [ 26.546306288678345, 37.588035111257589 ], [ 26.546304647399204, 37.588305508710995 ], [ 26.545625058418349, 37.588302894585112 ], [ 26.545621770877641, 37.588843689403717 ], [ 26.545961567815404, 37.588844996981109 ], [ 26.545963210367582, 37.588574599565355 ], [ 26.546303006098132, 37.58857590615191 ], [ 26.546299723430181, 37.589116700996307 ], [ 26.545620127074326, 37.589114086794289 ], [ 26.545618483249044, 37.589384484172427 ], [ 26.545958282645195, 37.589385791775165 ], [ 26.545956640027157, 37.589656189153494 ], [ 26.546636241343705, 37.589658801449836 ], [ 26.546632960958718, 37.59019959621974 ], [ 26.546972764108371, 37.590200900925971 ], [ 26.546971125112243, 37.590471298304848 ], [ 26.547990538380354, 37.590475206592231 ], [ 26.54799380897515, 37.589934411746171 ] ] ] ] } },
{ "type": "Feature", "properties": { "FX_CODE": 375, "PATH": 181, "ROW": 34, "DATE": 20140708, "ID": 0.0, "Pres_Topo": 1 }, "geometry": { "type": "MultiPolygon", "coordinates": [ [ [ [ 26.486044616869712, 37.55561003532614 ], [ 26.485704973906198, 37.55560855637119 ], [ 26.485708690492533, 37.555067763293778 ], [ 26.484689769113618, 37.555063320653403 ], [ 26.484693492962979, 37.554522527612264 ], [ 26.483674579170376, 37.554518076265857 ], [ 26.483672713576986, 37.5547884727495 ], [ 26.483333074468909, 37.554786986999112 ], [ 26.483336808084843, 37.554246194048204 ], [ 26.482997171455807, 37.554244707349753 ], [ 26.482984094773823, 37.556137482358267 ], [ 26.482304804411491, 37.55613450582841 ], [ 26.482301063083312, 37.556675298517753 ], [ 26.481621767912358, 37.55667231802218 ], [ 26.481625514149165, 37.55613152539069 ], [ 26.481285869055547, 37.55613003370636 ], [ 26.48129336613718, 37.55504844835135 ], [ 26.480614085841943, 37.555045462167712 ], [ 26.480612209154941, 37.555315858496215 ], [ 26.480272567817845, 37.555314363924488 ], [ 26.480270689878672, 37.555584760226004 ], [ 26.480268811914403, 37.55585515651503 ], [ 26.480608455705696, 37.555856651115761 ], [ 26.480604702156132, 37.556397443685334 ], [ 26.480944348426796, 37.556398937338109 ], [ 26.480942472841541, 37.556669333618643 ], [ 26.481282120364433, 37.556670826308903 ], [ 26.481280245981292, 37.556941222591426 ], [ 26.48161989475641, 37.556942714319185 ], [ 26.481618021575432, 37.557213110603712 ], [ 26.482636971732486, 37.557217579968345 ], [ 26.482638841231889, 37.556947183640453 ], [ 26.48297849010703, 37.556948671460198 ], [ 26.482980358354258, 37.556678275105362 ], [ 26.483659653725095, 37.556681247785015 ], [ 26.483655922114419, 37.55722204053987 ], [ 26.484674872720781, 37.557226492318321 ], [ 26.484676734856979, 37.556956095903907 ], [ 26.485016383881689, 37.556957577861645 ], [ 26.485012662038812, 37.557498370706689 ], [ 26.484673010559682, 37.557496888720195 ], [ 26.484669286162841, 37.558037681486475 ], [ 26.485008940096446, 37.558039163501746 ], [ 26.485007079087953, 37.558309559880549 ], [ 26.485686389484318, 37.558312521008702 ], [ 26.485684530905505, 37.558582917403704 ], [ 26.486024187368233, 37.558584396516579 ], [ 26.486022329991901, 37.558854792913458 ], [ 26.486361987706744, 37.55885627106359 ], [ 26.486358275334254, 37.559397063848614 ], [ 26.48669793552855, 37.559398541050356 ], [ 26.486696080532443, 37.559668937438452 ], [ 26.487035741978882, 37.559670413677402 ], [ 26.487033888185341, 37.559940810067317 ], [ 26.487373550883927, 37.559942285343531 ], [ 26.487380961000063, 37.558860699651582 ], [ 26.487720618814031, 37.558862173893417 ], [ 26.487722470053875, 37.558591777424887 ], [ 26.487724321268963, 37.558321380943866 ], [ 26.487384665909563, 37.558319906730652 ], [ 26.487386518327199, 37.558049510251429 ], [ 26.487046864219828, 37.558048035075437 ], [ 26.487048717839947, 37.557777638598083 ], [ 26.486709064984609, 37.557776162459383 ], [ 26.486710919807184, 37.557505765983834 ], [ 26.486371268203872, 37.557504288882477 ], [ 26.486373124228873, 37.557233892408739 ], [ 26.48603347387758, 37.557232414344696 ], [ 26.486039045485331, 37.556421224891629 ], [ 26.485699398840413, 37.556419745893614 ], [ 26.485703115575763, 37.555878952891156 ], [ 26.486042759766399, 37.555880431860459 ], [ 26.486044616869712, 37.55561003532614 ] ] ] ] } },
{ "type": "Feature", "properties": { "FX_CODE": 375, "PATH": 181, "ROW": 34, "DATE": 20140708, "ID": 0.0, "Pres_Topo": 1 }, "geometry": { "type": "MultiPolygon", "coordinates": [ [ [ [ 26.436466624518552, 37.599189109753944 ], [ 26.436126786328778, 37.599187486593195 ], [ 26.436124745656404, 37.599457878904694 ], [ 26.435784906264178, 37.59945625474974 ], [ 26.435780822378092, 37.59999703930368 ], [ 26.437140189948551, 37.600003530178675 ], [ 26.437142226986204, 37.599733137844972 ], [ 26.437144263996643, 37.599462745498776 ], [ 26.436804424522645, 37.599461124279209 ], [ 26.436806462735579, 37.599190731936233 ], [ 26.436466624518552, 37.599189109753944 ] ] ] ] } },
{ "type": "Feature", "properties": { "FX_CODE": 375, "PATH": 181, "ROW": 34, "DATE": 20140708, "ID": 0.0, "Pres_Topo": 1 }, "geometry": { "type": "MultiPolygon", "coordinates": [ [ [ [ 26.431031275855201, 37.598892629680257 ], [ 26.431710948981124, 37.598895904345284 ], [ 26.431713005584918, 37.598625512214319 ], [ 26.432732511790849, 37.598630416825912 ], [ 26.432734564678146, 37.598360024634836 ], [ 26.431035393954005, 37.598351845469374 ], [ 26.431031275855201, 37.598892629680257 ] ] ] ] } },
{ "type": "Feature", "properties": { "FX_CODE": 375, "PATH": 181, "ROW": 34, "DATE": 20140708, "ID": 0.0, "Pres_Topo": 1 }, "geometry": { "type": "MultiPolygon", "coordinates": [ [ [ [ 26.4436032327752, 37.599222970105011 ], [ 26.44360121915685, 37.59949336276074 ], [ 26.445640259652404, 37.599502957984299 ], [ 26.445638253385646, 37.599773350720618 ], [ 26.446997619171558, 37.599779728028643 ], [ 26.447001621840322, 37.59923894241976 ], [ 26.44598210483916, 37.599234160999252 ], [ 26.445986114779181, 37.598693375433108 ], [ 26.445306441831224, 37.598690182989031 ], [ 26.445308449220413, 37.59841979021818 ], [ 26.444628778839153, 37.598416593891315 ], [ 26.444626768990592, 37.598686986631172 ], [ 26.443947096257411, 37.598683786359501 ], [ 26.443945083922589, 37.598954179055816 ], [ 26.443605246366641, 37.598952577436798 ], [ 26.4436032327752, 37.599222970105011 ] ] ] ] } },
{ "type": "Feature", "properties": { "FX_CODE": 375, "PATH": 181, "ROW": 34, "DATE": 20140708, "ID": 0.0, "Pres_Topo": 1 }, "geometry": { "type": "MultiPolygon", "coordinates": [ [ [ [ 26.455291787560068, 37.580890111267458 ], [ 26.455295727512912, 37.580349323171653 ], [ 26.45495597388966, 37.580347754892053 ], [ 26.454954002697804, 37.580618148930959 ], [ 26.454614247872318, 37.580616579658297 ], [ 26.454612275425504, 37.580886973669486 ], [ 26.454272519397758, 37.580885403403769 ], [ 26.454270545695955, 37.581155797387233 ], [ 26.454264624432284, 37.58196697926256 ], [ 26.453924863516306, 37.58196540795803 ], [ 26.453922888480292, 37.582235801876223 ], [ 26.453920913417875, 37.582506195781896 ], [ 26.454600440191019, 37.582509337474058 ], [ 26.455279967069622, 37.582512475254724 ], [ 26.455291787560068, 37.580890111267458 ] ] ] ] } },
{ "type": "Feature", "properties": { "FX_CODE": 375, "PATH": 181, "ROW": 34, "DATE": 20140708, "ID": 0.0, "Pres_Topo": 1 }, "geometry": { "type": "MultiPolygon", "coordinates": [ [ [ [ 26.454922460044887, 37.584944451853147 ], [ 26.45526223455651, 37.584946020391527 ], [ 26.455264204941074, 37.58467562653744 ], [ 26.455603978250156, 37.584677194082609 ], [ 26.45561185460982, 37.583595618480452 ], [ 26.454932317848527, 37.583592482533874 ], [ 26.454930346340504, 37.583862876422756 ], [ 26.454590576770585, 37.583861306967336 ], [ 26.454588604007398, 37.584131700828486 ], [ 26.454584658401927, 37.584672488513213 ], [ 26.454924431658331, 37.584674058014301 ], [ 26.454922460044887, 37.584944451853147 ] ] ] ] } },
{ "type": "Feature", "properties": { "FX_CODE": 375, "PATH": 181, "ROW": 34, "DATE": 20140708, "ID": 0.0, "Pres_Topo": 1 }, "geometry": { "type": "MultiPolygon", "coordinates": [ [ [ [ 26.459066274729906, 37.575769806043638 ], [ 26.459068230707974, 37.57549941159764 ], [ 26.458728498907995, 37.575497854345933 ], [ 26.458736327471897, 37.574416276497431 ], [ 26.458056873776531, 37.574413159182043 ], [ 26.45806079281439, 37.573872370243265 ], [ 26.457721068462412, 37.57387081014943 ], [ 26.457713225369019, 37.574952387916447 ], [ 26.457373496130323, 37.574950826784466 ], [ 26.457365647704439, 37.576032404290807 ], [ 26.457705381856304, 37.576033965483383 ], [ 26.457703420912615, 37.576304359843881 ], [ 26.458043156319018, 37.576305920073935 ], [ 26.458041196577476, 37.576576314437041 ], [ 26.458720669925562, 37.576579431994404 ], [ 26.458724584469092, 37.576038643195183 ], [ 26.459064318725702, 37.576040200477109 ], [ 26.459066274729906, 37.575769806043638 ] ] ] ] } },
{ "type": "Feature", "properties": { "FX_CODE": 375, "PATH": 181, "ROW": 34, "DATE": 20140708, "ID": 0.0, "Pres_Topo": 1 }, "geometry": { "type": "MultiPolygon", "coordinates": [ [ [ [ 26.46828329453573, 37.569592397974056 ], [ 26.468289061126868, 37.568781212522879 ], [ 26.467949359329339, 37.568779682038866 ], [ 26.467947435930089, 37.569050077186901 ], [ 26.467607732930361, 37.569048545710622 ], [ 26.467601958894537, 37.56985973103518 ], [ 26.467262252236729, 37.569858198536849 ], [ 26.467254548250171, 37.570939778735081 ], [ 26.466914836706142, 37.570938245199805 ], [ 26.466909054761786, 37.571749430172574 ], [ 26.467588485243908, 37.571752496354932 ], [ 26.46759041012832, 37.571482101346746 ], [ 26.468609552360206, 37.571486693244353 ], [ 26.46861339468358, 37.570945903101382 ], [ 26.468617236904262, 37.570405112908404 ], [ 26.468277527713372, 37.570403583312746 ], [ 26.46828329453573, 37.569592397974056 ] ] ] ] } },
{ "type": "Feature", "properties": { "FX_CODE": 375, "PATH": 181, "ROW": 34, "DATE": 20140708, "ID": 0.0, "Pres_Topo": 1 }, "geometry": { "type": "MultiPolygon", "coordinates": [ [ [ [ 26.484339282457537, 37.605897643356172 ], [ 26.48230005449085, 37.605888715426985 ], [ 26.482298180463392, 37.606159109492928 ], [ 26.479919073697705, 37.606148648942387 ], [ 26.47991719103392, 37.606419042894323 ], [ 26.480257064583835, 37.606420540209406 ], [ 26.48025330164117, 37.606961328104845 ], [ 26.482292558230736, 37.60697029161571 ], [ 26.48229443233333, 37.606699897587262 ], [ 26.48399380736258, 37.60670734019164 ], [ 26.483995675289105, 37.606436946078517 ], [ 26.484335549139718, 37.606438431648733 ], [ 26.484339282457537, 37.605897643356172 ] ] ] ] } },
{ "type": "Feature", "properties": { "FX_CODE": 375, "PATH": 181, "ROW": 34, "DATE": 20140708, "ID": 0.0, "Pres_Topo": 1 }, "geometry": { "type": "MultiPolygon", "coordinates": [ [ [ [ 26.485384975546332, 37.602116574055771 ], [ 26.485045121301962, 37.602115091651875 ], [ 26.485043257464682, 37.602385486008174 ], [ 26.484703402015288, 37.602384002611309 ], [ 26.48470153692314, 37.602654396940743 ], [ 26.485041393602483, 37.602655880351982 ], [ 26.485039529715387, 37.602926274683306 ], [ 26.485379387649626, 37.602927757130324 ], [ 26.485377524967603, 37.603198151463516 ], [ 26.485375662260687, 37.603468545784217 ], [ 26.485715522679818, 37.603470027281375 ], [ 26.485724829815592, 37.602118055481057 ], [ 26.485384975546332, 37.602116574055771 ] ] ] ] } },
{ "type": "Feature", "properties": { "FX_CODE": 375, "PATH": 181, "ROW": 34, "DATE": 20140708, "ID": 0.0, "Pres_Topo": 1 }, "geometry": { "type": "MultiPolygon", "coordinates": [ [ [ [ 26.485371936772133, 37.60400933438811 ], [ 26.485370073990524, 37.604279728671322 ], [ 26.48503020990616, 37.604278246152376 ], [ 26.485028345869569, 37.604548640408701 ], [ 26.484688480580047, 37.6045471568967 ], [ 26.484686615288453, 37.604817551126132 ], [ 26.484682884630455, 37.605358339547486 ], [ 26.484343015675549, 37.605356855013603 ], [ 26.484339282457537, 37.605897643356172 ], [ 26.48467915387274, 37.605899127918846 ], [ 26.484681019264066, 37.605628733739394 ], [ 26.485020889474047, 37.605630217308978 ], [ 26.485022753610302, 37.605359823102638 ], [ 26.485362622615067, 37.605361305679139 ], [ 26.485366348352596, 37.60482051720021 ], [ 26.485706214922011, 37.604821998769225 ], [ 26.485711799651352, 37.604010815914009 ], [ 26.485371936772133, 37.60400933438811 ] ] ] ] } },
{ "type": "Feature", "properties": { "FX_CODE": 375, "PATH": 181, "ROW": 34, "DATE": 20140708, "ID": 0.0, "Pres_Topo": 1 }, "geometry": { "type": "MultiPolygon", "coordinates": [ [ [ [ 26.476901879730573, 37.600186461974317 ], [ 26.476907559114679, 37.599375279611841 ], [ 26.477247400458182, 37.599376785355716 ], [ 26.477251184128257, 37.598835997022327 ], [ 26.476911345244236, 37.598834491307677 ], [ 26.476909452192107, 37.599104885466019 ], [ 26.476569612103656, 37.599103378758279 ], [ 26.476565823463979, 37.599644167008208 ], [ 26.475886138444018, 37.599641150598778 ], [ 26.475884241626627, 37.59991154467572 ], [ 26.475204554248503, 37.599908524322998 ], [ 26.475202654946166, 37.600178918358154 ], [ 26.474862810065389, 37.600177406699395 ], [ 26.474857108316517, 37.600988588685816 ], [ 26.474177411252171, 37.600985562344661 ], [ 26.474173605039756, 37.601526350214385 ], [ 26.47281420137746, 37.601520285671846 ], [ 26.472810385224044, 37.602061073373896 ], [ 26.472470531912379, 37.602059554762377 ], [ 26.472466713197079, 37.602600342384989 ], [ 26.472806568968622, 37.602601861025938 ], [ 26.472795119590216, 37.604224223682046 ], [ 26.471435667137186, 37.604218142892655 ], [ 26.471433753897937, 37.604488536565917 ], [ 26.471093889618519, 37.604487013907175 ], [ 26.471091975123624, 37.604757407553159 ], [ 26.471431840633127, 37.604758930226687 ], [ 26.471771706168198, 37.604760451921535 ], [ 26.471773618202931, 37.604490058246007 ], [ 26.472113482533501, 37.604491578947432 ], [ 26.472109660898617, 37.605032366315491 ], [ 26.471769794107896, 37.605030845584565 ], [ 26.471765969910624, 37.605571632873115 ], [ 26.473465316420661, 37.60557922688821 ], [ 26.473467222381441, 37.605308833176537 ], [ 26.474146958703646, 37.60531186390228 ], [ 26.474148862178744, 37.605041470148684 ], [ 26.475168463162486, 37.60504600885303 ], [ 26.475166563377744, 37.605316402650637 ], [ 26.476865905008871, 37.605323947657332 ], [ 26.476864011349367, 37.605594341515662 ], [ 26.477543750639381, 37.60559735269667 ], [ 26.477541859414867, 37.605867746571676 ], [ 26.478221601266288, 37.605870753867052 ], [ 26.478219712476829, 37.606141147758727 ], [ 26.478559584670574, 37.606142649952908 ], [ 26.4785539218413, 37.606953831596684 ], [ 26.478893797750878, 37.606955332855811 ], [ 26.478890024865699, 37.607496120584933 ], [ 26.479569781681434, 37.607499120225178 ], [ 26.479571665676136, 37.607228726337752 ], [ 26.479911542891536, 37.607230224675156 ], [ 26.47991719103392, 37.606419042894323 ], [ 26.479577317509165, 37.606417544600511 ], [ 26.479575433590007, 37.606687938525432 ], [ 26.479235558860228, 37.606686439238352 ], [ 26.479241214232704, 37.605875257469727 ], [ 26.478901343218684, 37.605873757247551 ], [ 26.478903229522597, 37.605603363314231 ], [ 26.478223490030494, 37.605600359962864 ], [ 26.478225378769459, 37.605329966046178 ], [ 26.477545641838606, 37.605326958809172 ], [ 26.477547533012572, 37.605056564909141 ], [ 26.477207665815158, 37.605055059837184 ], [ 26.477211450547415, 37.604514272028844 ], [ 26.476871585835493, 37.604512766007446 ], [ 26.476873479393731, 37.604242372099129 ], [ 26.476193752505957, 37.604239357149496 ], [ 26.476191856487581, 37.604509751028573 ], [ 26.476189960443847, 37.60478014489513 ], [ 26.475170362921858, 37.60477561504289 ], [ 26.475174162364389, 37.604234827385149 ], [ 26.474834299034629, 37.604233315506413 ], [ 26.474838100835672, 37.603692527827981 ], [ 26.473818518379133, 37.603687986407884 ], [ 26.47381661380123, 37.603958380209257 ], [ 26.473476751803243, 37.603956864430586 ], [ 26.473474845969829, 37.604227258204773 ], [ 26.47313498276727, 37.604225741432721 ], [ 26.473138796868696, 37.603684953901272 ], [ 26.473478657611189, 37.603686470643893 ], [ 26.473486280588197, 37.602604895372075 ], [ 26.473490091923868, 37.602064107661164 ], [ 26.473829945312001, 37.602065623336905 ], [ 26.473831849711722, 37.601795229448008 ], [ 26.474851406339027, 37.601799770559758 ], [ 26.47485330702359, 37.601529376614252 ], [ 26.475533009109043, 37.601532399099916 ], [ 26.47553490730844, 37.601262005112631 ], [ 26.47519505748291, 37.60126049437374 ], [ 26.475196956886801, 37.600990100388593 ], [ 26.475536805482474, 37.600991611112818 ], [ 26.475540601754414, 37.600450823075725 ], [ 26.476899986551928, 37.600456856070139 ], [ 26.476901879730573, 37.600186461974317 ] ] ] ] } },
{ "type": "Feature", "properties": { "FX_CODE": 375, "PATH": 181, "ROW": 34, "DATE": 20140708, "ID": 0.0, "Pres_Topo": 1 }, "geometry": { "type": "MultiPolygon", "coordinates": [ [ [ [ 26.49433281668524, 37.58566067022651 ], [ 26.4950123765393, 37.585663579489527 ], [ 26.495016029823802, 37.585122788388695 ], [ 26.495695584859821, 37.585125693683288 ], [ 26.495699233131095, 37.584584902476102 ], [ 26.495019683010664, 37.584581997237883 ], [ 26.495023336099855, 37.584041206037092 ], [ 26.495363108690164, 37.584042659116996 ], [ 26.495370409660374, 37.5829610765091 ], [ 26.494351106708436, 37.582956714504853 ], [ 26.494011339106656, 37.582955258547585 ], [ 26.494009508985556, 37.583225654161829 ], [ 26.493669740179449, 37.58322419721253 ], [ 26.493667908805087, 37.583494592800164 ], [ 26.494007678839992, 37.58349604976361 ], [ 26.494000358013139, 37.584577632045736 ], [ 26.493660583062866, 37.584576175025731 ], [ 26.493656920044874, 37.585116966063566 ], [ 26.493996697452928, 37.585118423111837 ], [ 26.493994867136134, 37.585388818626143 ], [ 26.494334645797569, 37.585390274710548 ], [ 26.49433281668524, 37.58566067022651 ] ] ] ] } },
{ "type": "Feature", "properties": { "FX_CODE": 375, "PATH": 181, "ROW": 34, "DATE": 20140708, "ID": 0.0, "Pres_Topo": 1 }, "geometry": { "type": "MultiPolygon", "coordinates": [ [ [ [ 26.488185307667028, 37.590231028328098 ], [ 26.488525108033546, 37.590232501295773 ], [ 26.48853065923295, 37.589421316072134 ], [ 26.488870455936624, 37.58942278801883 ], [ 26.488876003226018, 37.588611602639858 ], [ 26.48955558933265, 37.588614543513181 ], [ 26.489561129025077, 37.587803357936174 ], [ 26.488541760964008, 37.587798945287467 ], [ 26.488201971659755, 37.587797472448401 ], [ 26.488200120203995, 37.588067867596138 ], [ 26.487860329695412, 37.588066393764656 ], [ 26.48785662425146, 37.588607183994043 ], [ 26.488196417218244, 37.588608657854103 ], [ 26.488185307667028, 37.590231028328098 ] ] ] ] } },
{ "type": "Feature", "properties": { "FX_CODE": 375, "PATH": 181, "ROW": 34, "DATE": 20140708, "ID": 0.0, "Pres_Topo": 1 }, "geometry": { "type": "MultiPolygon", "coordinates": [ [ [ [ 26.504826596938578, 37.591654031906771 ], [ 26.503807173965974, 37.591649750719078 ], [ 26.503805378712105, 37.591920146339454 ], [ 26.503125761058353, 37.591917287295423 ], [ 26.503123963321798, 37.592187682875526 ], [ 26.502784153301615, 37.592186251872285 ], [ 26.502780555297733, 37.592727042967311 ], [ 26.503120367776628, 37.592728473998342 ], [ 26.50312216556123, 37.592458078443201 ], [ 26.503461976834799, 37.592459508482065 ], [ 26.503460180279564, 37.592729904051112 ], [ 26.504479617932372, 37.592734188339755 ], [ 26.504477825041288, 37.593004583937812 ], [ 26.505157452721779, 37.593007435266593 ], [ 26.505159243154079, 37.592737039640824 ], [ 26.505838868471518, 37.592739887028856 ], [ 26.505840656421157, 37.592469491362969 ], [ 26.506180467886363, 37.592470913575781 ], [ 26.506184041255246, 37.591930122178951 ], [ 26.505164614307436, 37.591925852688597 ], [ 26.505166404644033, 37.591655457012877 ], [ 26.504826596938578, 37.591654031906771 ] ] ] ] } },
{ "type": "Feature", "properties": { "FX_CODE": 375, "PATH": 181, "ROW": 34, "DATE": 20140708, "ID": 0.0, "Pres_Topo": 1 }, "geometry": { "type": "MultiPolygon", "coordinates": [ [ [ [ 26.501762920707439, 37.592452348505113 ], [ 26.500743487320019, 37.592448040779843 ], [ 26.500741680929842, 37.592718436237611 ], [ 26.500401868619612, 37.592716998358718 ], [ 26.500394637899849, 37.593798580009043 ], [ 26.501074272379721, 37.593801454900095 ], [ 26.50106524573118, 37.59515343182138 ], [ 26.501405069154732, 37.595154867869127 ], [ 26.501419501667186, 37.592991704533709 ], [ 26.502778756259719, 37.592997438496099 ], [ 26.502780555297733, 37.592727042967311 ], [ 26.501761118005355, 37.592722744004675 ], [ 26.501762920707439, 37.592452348505113 ] ] ] ] } },
{ "type": "Feature", "properties": { "FX_CODE": 375, "PATH": 181, "ROW": 34, "DATE": 20140708, "ID": 0.0, "Pres_Topo": 1 }, "geometry": { "type": "MultiPolygon", "coordinates": [ [ [ [ 26.504465274132681, 37.594897352774751 ], [ 26.504463481049875, 37.595167748272914 ], [ 26.504123657409878, 37.595166321030348 ], [ 26.504121863073578, 37.595436716502192 ], [ 26.503782038228039, 37.59543528826741 ], [ 26.503780242638204, 37.595705683712886 ], [ 26.503440416587111, 37.595704254485874 ], [ 26.502760764556992, 37.595701393096761 ], [ 26.502762563835478, 37.595430997692894 ], [ 26.502082914360667, 37.5954281324181 ], [ 26.502081112623081, 37.595698527794134 ], [ 26.502420938578002, 37.59569996093461 ], [ 26.502419138045902, 37.595970356312087 ], [ 26.504458101657658, 37.595978934692454 ], [ 26.504459894812367, 37.595708539231758 ], [ 26.505479373253319, 37.595712815172313 ], [ 26.5054757942974, 37.59625360616414 ], [ 26.505815622951395, 37.596255029548523 ], [ 26.505817411211737, 37.595984634045053 ], [ 26.506157238660059, 37.595986056437233 ], [ 26.506155451629297, 37.596256451954524 ], [ 26.506495280331084, 37.596257873382122 ], [ 26.506493494506046, 37.596528268900698 ], [ 26.506833324461311, 37.596529689363699 ], [ 26.506836893628311, 37.595988898286485 ], [ 26.508536031466122, 37.595995985787859 ], [ 26.508537809865992, 37.595725590161713 ], [ 26.507178504466399, 37.5957199221724 ], [ 26.507182071031202, 37.59517913099269 ], [ 26.506842247199941, 37.595177711576945 ], [ 26.506502423392533, 37.595176291182874 ], [ 26.506500637662963, 37.595446686751416 ], [ 26.506160812649899, 37.5954452653652 ], [ 26.50616438654421, 37.594904474243165 ], [ 26.504465274132681, 37.594897352774751 ] ] ] ] } },
{ "type": "Feature", "properties": { "FX_CODE": 375, "PATH": 181, "ROW": 34, "DATE": 20140708, "ID": 0.0, "Pres_Topo": 1 }, "geometry": { "type": "MultiPolygon", "coordinates": [ [ [ [ 26.497459905690178, 37.575398687899003 ], [ 26.496780438870896, 37.575395793395629 ], [ 26.496785897554179, 37.574584605090251 ], [ 26.496446167865887, 37.574583156414278 ], [ 26.496106438201949, 37.574581706760675 ], [ 26.496104616208608, 37.574852102846819 ], [ 26.495764885340733, 37.574850652201476 ], [ 26.495763062094756, 37.575121048261067 ], [ 26.495761238824407, 37.575391444308167 ], [ 26.495759415529694, 37.575661840342754 ], [ 26.4960991500825, 37.575663291030324 ], [ 26.496438884659668, 37.575664740740216 ], [ 26.496433421999473, 37.576475928853469 ], [ 26.497792375291628, 37.576481718084914 ], [ 26.497790559269788, 37.576752114153855 ], [ 26.498130298881946, 37.576753559031488 ], [ 26.49812848406426, 37.577023955101964 ], [ 26.498468224929081, 37.577025399015902 ], [ 26.498466411315562, 37.577295795087899 ], [ 26.498806153433055, 37.577297238038163 ], [ 26.49948563774068, 37.577300121005464 ], [ 26.499489257572971, 37.576759328765007 ], [ 26.499491067452823, 37.576488932626049 ], [ 26.499151328972136, 37.57648749167322 ], [ 26.499153140056183, 37.576217095535753 ], [ 26.498473665624221, 37.576214210724984 ], [ 26.498475479140776, 37.575943814603015 ], [ 26.497796007262487, 37.575940925909535 ], [ 26.497797823211499, 37.575670529803119 ], [ 26.497458088537094, 37.575669084003884 ], [ 26.497459905690178, 37.575398687899003 ] ] ] ] } },
{ "type": "Feature", "properties": { "FX_CODE": 375, "PATH": 181, "ROW": 34, "DATE": 20140708, "ID": 0.0, "Pres_Topo": 1 }, "geometry": { "type": "MultiPolygon", "coordinates": [ [ [ [ 26.505581333289658, 37.580300250900599 ], [ 26.505586697455943, 37.579489062183185 ], [ 26.504907192626046, 37.579486214192947 ], [ 26.504910773531634, 37.578945421707509 ], [ 26.504571023609689, 37.578943996273338 ], [ 26.504576398474168, 37.578132807492992 ], [ 26.504236652261717, 37.578131381122574 ], [ 26.504234859435666, 37.578401777381316 ], [ 26.503555364625676, 37.578398921679508 ], [ 26.503566135964014, 37.57677654410579 ], [ 26.503226395965747, 37.576775114871459 ], [ 26.503224599574253, 37.577045511151113 ], [ 26.502884858371573, 37.577044080925162 ], [ 26.502879465367702, 37.577855269647522 ], [ 26.502539720503705, 37.577853838402213 ], [ 26.502534323598098, 37.578665026970469 ], [ 26.502874072147588, 37.578666458257437 ], [ 26.503213820721115, 37.578667888566663 ], [ 26.503893317940165, 37.578670746251738 ], [ 26.50388972971119, 37.579211538679125 ], [ 26.50422948081377, 37.579212966082707 ], [ 26.504225894946021, 37.579753758487819 ], [ 26.504565648529713, 37.579755184941313 ], [ 26.504563856788494, 37.580025581138976 ], [ 26.50490361162473, 37.580027006628441 ], [ 26.504898239943266, 37.580838195187994 ], [ 26.504892868046419, 37.58164938363516 ], [ 26.505232630278524, 37.581650808229746 ], [ 26.505230840827092, 37.581921204367632 ], [ 26.505570604311831, 37.581922627998168 ], [ 26.505568816065207, 37.582193024137375 ], [ 26.505908580802579, 37.582194446803832 ], [ 26.505905006695144, 37.582735239072385 ], [ 26.506244773913902, 37.582736660788498 ], [ 26.506248345563833, 37.582195868492363 ], [ 26.50658811034895, 37.582197289203016 ], [ 26.506589894909379, 37.581926893022434 ], [ 26.506250131352985, 37.581925472325558 ], [ 26.506251917118281, 37.581655076146262 ], [ 26.505912154814478, 37.581653654485315 ], [ 26.505913941784598, 37.581383258307312 ], [ 26.505574180733387, 37.581381835682265 ], [ 26.505579545186432, 37.580570647114754 ], [ 26.505239787845106, 37.580569223553297 ], [ 26.50524157717696, 37.580298827352941 ], [ 26.505581333289658, 37.580300250900599 ] ] ] ] } },
{ "type": "Feature", "properties": { "FX_CODE": 375, "PATH": 181, "ROW": 34, "DATE": 20140708, "ID": 0.0, "Pres_Topo": 1 }, "geometry": { "type": "MultiPolygon", "coordinates": [ [ [ [ 26.544582608852679, 37.592084528208638 ], [ 26.54458425658575, 37.591814130993448 ], [ 26.5439046358645, 37.591811506755256 ], [ 26.543902985672705, 37.592081903944973 ], [ 26.543563174115793, 37.592080590345773 ], [ 26.543561522672551, 37.592350987510279 ], [ 26.543221709908337, 37.592349672920037 ], [ 26.543220057213635, 37.592620070059311 ], [ 26.542880243242127, 37.592618754478046 ], [ 26.542878589295924, 37.592889151592047 ], [ 26.542876935327627, 37.593159548693585 ], [ 26.542537118919395, 37.5931582321085 ], [ 26.542535463699533, 37.593428629184785 ], [ 26.542195646083979, 37.593427311608586 ], [ 26.542193989612549, 37.593697708659626 ], [ 26.541854170789684, 37.593696390092362 ], [ 26.541852513066647, 37.593966787118106 ], [ 26.541512693036456, 37.593965467559684 ], [ 26.54151103406177, 37.594235864560162 ], [ 26.540831391608968, 37.594233222482728 ], [ 26.54049157041586, 37.594231899976485 ], [ 26.5404899077305, 37.594502296926045 ], [ 26.53913061826248, 37.594496997066358 ], [ 26.539128950636812, 37.594767393951983 ], [ 26.540148421392995, 37.594771370352831 ], [ 26.540145093452047, 37.595312164163779 ], [ 26.540824745652255, 37.59531481025725 ], [ 26.540826407174745, 37.595044413332332 ], [ 26.541845881952913, 37.59504837509629 ], [ 26.541847539764579, 37.594777978120447 ], [ 26.542187363505434, 37.594779296738928 ], [ 26.542190676603276, 37.594238502724245 ], [ 26.542870319233341, 37.594241136974958 ], [ 26.542871973290076, 37.593970739923336 ], [ 26.543211793408787, 37.593972055568429 ], [ 26.543218404496844, 37.592890467186102 ], [ 26.544237850232093, 37.592894408098438 ], [ 26.544224657210062, 37.595057584969318 ], [ 26.543884832107064, 37.595056272208289 ], [ 26.543881531172005, 37.595597066275715 ], [ 26.544221358734124, 37.595598379062238 ], [ 26.544223007983124, 37.595327982022013 ], [ 26.544562834337722, 37.595329293817414 ], [ 26.544564482335112, 37.595058896751979 ], [ 26.544904307482177, 37.595060207556294 ], [ 26.544909247653614, 37.594249016247005 ], [ 26.544569426195118, 37.594247705480853 ], [ 26.544572721991663, 37.593706911237668 ], [ 26.544582608852679, 37.592084528208638 ] ] ] ] } },
{ "type": "Feature", "properties": { "FX_CODE": 375, "PATH": 181, "ROW": 34, "DATE": 20140708, "ID": 0.0, "Pres_Topo": 1 }, "geometry": { "type": "MultiPolygon", "coordinates": [ [ [ [ 26.497463279618621, 37.625423203040867 ], [ 26.49712331865215, 37.625421754658561 ], [ 26.497125140279795, 37.625151360852719 ], [ 26.496445220882613, 37.625148461178007 ], [ 26.496447044948582, 37.624878067387776 ], [ 26.495767128111599, 37.624875163823596 ], [ 26.495763475029914, 37.625415951335214 ], [ 26.495423514185351, 37.625414498055861 ], [ 26.495418030685553, 37.6262256791873 ], [ 26.495757995224263, 37.626227132508951 ], [ 26.495750688474889, 37.627308707232231 ], [ 26.495410719010412, 37.627307253854205 ], [ 26.495407063026235, 37.627848041112685 ], [ 26.495747034953702, 37.627849494518884 ], [ 26.495736073804043, 37.629471856078929 ], [ 26.496416032510901, 37.62947476012188 ], [ 26.496414208030377, 37.629745153699631 ], [ 26.496074227433137, 37.62974370215386 ], [ 26.496065098506389, 37.631095669784777 ], [ 26.496405085261951, 37.631097121400941 ], [ 26.496399611308213, 37.631908301871754 ], [ 26.496739601783354, 37.631909752550484 ], [ 26.496743248646759, 37.631368965554316 ], [ 26.497083236682801, 37.631370415225327 ], [ 26.497085058846228, 37.631100021694429 ], [ 26.497425045674916, 37.631101470371753 ], [ 26.497426866582291, 37.630831076814317 ], [ 26.497766852203622, 37.630832524497976 ], [ 26.49777049148199, 37.630291737317521 ], [ 26.497430508324005, 37.630290289661943 ], [ 26.497437791515363, 37.629208715207191 ], [ 26.49709781330823, 37.629207266628221 ], [ 26.4970996352768, 37.62893687299735 ], [ 26.496759658325598, 37.628935423452852 ], [ 26.49676148150138, 37.62866502982353 ], [ 26.496763304652802, 37.628394636181746 ], [ 26.496423330189089, 37.628393185685894 ], [ 26.496425154547669, 37.62812279204563 ], [ 26.496430627477096, 37.627311611049883 ], [ 26.496090657963791, 37.627310159630795 ], [ 26.496103435898892, 37.625417403635183 ], [ 26.496443396792266, 37.625418854955718 ], [ 26.496441572677536, 37.625689248720931 ], [ 26.497121497000158, 37.625692148451925 ], [ 26.497117853623113, 37.626232936001131 ], [ 26.497457818283738, 37.626234384425594 ], [ 26.49813774767799, 37.626237278336149 ], [ 26.498143201624565, 37.62542609686723 ], [ 26.497463279618621, 37.625423203040867 ] ] ] ] } },
{ "type": "Feature", "properties": { "FX_CODE": 375, "PATH": 181, "ROW": 34, "DATE": 20140708, "ID": 0.0, "Pres_Topo": 1 }, "geometry": { "type": "MultiPolygon", "coordinates": [ [ [ [ 26.496046838822338, 37.633799604109214 ], [ 26.496050490954421, 37.633258817344313 ], [ 26.495710494369089, 37.633257364635845 ], [ 26.495705012438776, 37.634068544722176 ], [ 26.495701357696426, 37.634609331383921 ], [ 26.495361354976133, 37.634607877625243 ], [ 26.495357697672205, 37.635148664208785 ], [ 26.495017692512487, 37.635147209442181 ], [ 26.495015862591899, 37.635417602701068 ], [ 26.495695875399694, 37.635420511282732 ], [ 26.495697702856358, 37.635150117995629 ], [ 26.496377713297953, 37.635153022630064 ], [ 26.496379538266318, 37.634882629302297 ], [ 26.496719542291764, 37.634884080135819 ], [ 26.496717718555356, 37.635154473477655 ], [ 26.497737734473759, 37.635158820141918 ], [ 26.497735914408857, 37.635429213513447 ], [ 26.498755934242105, 37.635433551401967 ], [ 26.498754117848815, 37.635703944803033 ], [ 26.499094125740463, 37.635705388820362 ], [ 26.49908868011093, 37.636516568990629 ], [ 26.498748668523238, 37.636515124931286 ], [ 26.498743218979136, 37.637326304947045 ], [ 26.499083234263015, 37.637327749048374 ], [ 26.499085049569917, 37.637057355708293 ], [ 26.499086864852561, 37.6367869623557 ], [ 26.499426877696553, 37.636788405449224 ], [ 26.49976689056481, 37.63678984756293 ], [ 26.499770516129136, 37.636249060764293 ], [ 26.500110526557538, 37.636250501870215 ], [ 26.500112338071343, 37.63598010843819 ], [ 26.500115961026307, 37.635439321536602 ], [ 26.499775954293895, 37.635437880472608 ], [ 26.499435947585717, 37.635436438428819 ], [ 26.499095940901785, 37.635434995405262 ], [ 26.499097756038829, 37.635164601977685 ], [ 26.498757750611123, 37.635163157988366 ], [ 26.49876138327631, 37.634622371123719 ], [ 26.498421380336769, 37.634620926182684 ], [ 26.498423197864859, 37.63435053274565 ], [ 26.497403192887795, 37.634346192086205 ], [ 26.497401371663962, 37.634616585481155 ], [ 26.496721366003793, 37.634613686781471 ], [ 26.496381363210265, 37.634612235961995 ], [ 26.496041360441144, 37.634610784162831 ], [ 26.496045012719684, 37.634069997472913 ], [ 26.496046838822338, 37.633799604109214 ] ] ] ] } },
{ "type": "Feature", "properties": { "FX_CODE": 375, "PATH": 181, "ROW": 34, "DATE": 20140708, "ID": 0.0, "Pres_Topo": 1 }, "geometry": { "type": "MultiPolygon", "coordinates": [ [ [ [ 26.547268339890405, 37.597502929844872 ], [ 26.546928503522992, 37.597501625775301 ], [ 26.546930143088794, 37.597231228720879 ], [ 26.546590307972959, 37.597229923685504 ], [ 26.546593589498148, 37.596689129564609 ], [ 26.545913924250993, 37.596686516609196 ], [ 26.545912281040046, 37.596956913650573 ], [ 26.545572447219755, 37.596955605692536 ], [ 26.54557080275718, 37.597226002708709 ], [ 26.545562580114606, 37.598577987602418 ], [ 26.545902421313187, 37.598579295636561 ], [ 26.5459040646559, 37.598308898670084 ], [ 26.546923584694113, 37.598312816863597 ], [ 26.546926863935273, 37.597772022817196 ], [ 26.547266701532411, 37.597773326899443 ], [ 26.547268339890405, 37.597502929844872 ] ] ] ] } },
{ "type": "Feature", "properties": { "FX_CODE": 375, "PATH": 181, "ROW": 34, "DATE": 20140708, "ID": 0.0, "Pres_Topo": 1 }, "geometry": { "type": "MultiPolygon", "coordinates": [ [ [ [ 26.545285263960853, 37.588301586054939 ], [ 26.545290198794476, 37.587490393771503 ], [ 26.544610617320163, 37.587487773853063 ], [ 26.544608969939407, 37.587758171267936 ], [ 26.543929386094973, 37.58775554741166 ], [ 26.543924436445842, 37.588566739505012 ], [ 26.544604027665049, 37.588569363437692 ], [ 26.544602380196231, 37.588839760802649 ], [ 26.544942177068027, 37.588841071314476 ], [ 26.544945469525352, 37.588300276546668 ], [ 26.545285263960853, 37.588301586054939 ] ] ] ] } },
{ "type": "Feature", "properties": { "FX_CODE": 375, "PATH": 181, "ROW": 34, "DATE": 20140708, "ID": 0.0, "Pres_Topo": 1 }, "geometry": { "type": "MultiPolygon", "coordinates": [ [ [ [ 26.472020056521824, 37.569609169277321 ], [ 26.472699468124297, 37.569612205898473 ], [ 26.472710905299312, 37.567989833730337 ], [ 26.472371206852735, 37.567988315996864 ], [ 26.472373114187246, 37.567717920606476 ], [ 26.472033416994009, 37.567716401910339 ], [ 26.472037234042205, 37.567175611121577 ], [ 26.471357844643521, 37.567172570856222 ], [ 26.471354022684054, 37.567713361585959 ], [ 26.471693719826263, 37.567714882236835 ], [ 26.47169181003607, 37.567985277597742 ], [ 26.472031508431645, 37.567986797285982 ], [ 26.472023873927132, 37.569068378663545 ], [ 26.471684170620023, 37.569066858916322 ], [ 26.471682260702202, 37.569337254214716 ], [ 26.472021965237239, 37.569338773976718 ], [ 26.472020056521824, 37.569609169277321 ] ] ] ] } },
{ "type": "Feature", "properties": { "FX_CODE": 375, "PATH": 181, "ROW": 34, "DATE": 20140708, "ID": 0.0, "Pres_Topo": 1 }, "geometry": { "type": "MultiPolygon", "coordinates": [ [ [ [ 26.489470561827968, 37.551298422606713 ], [ 26.489476094993055, 37.550487231900135 ], [ 26.488796855220187, 37.550484293094414 ], [ 26.48879131469414, 37.551295483715414 ], [ 26.488451691164251, 37.551294012804561 ], [ 26.488449843046002, 37.551564409638971 ], [ 26.488110218313945, 37.551562937736996 ], [ 26.488113916979426, 37.551022144084257 ], [ 26.487774294725785, 37.551020671234113 ], [ 26.487776145248283, 37.550750274403299 ], [ 26.487436524246199, 37.550748800590632 ], [ 26.487430968923992, 37.551559991002648 ], [ 26.487770593606605, 37.551561464858239 ], [ 26.487768743009916, 37.551831861651571 ], [ 26.488108368944136, 37.551833334544632 ], [ 26.488106519549596, 37.55210373133977 ], [ 26.489465028441032, 37.552109613200841 ], [ 26.489470561827968, 37.551298422606713 ] ] ] ] } },
{ "type": "Feature", "properties": { "FX_CODE": 375, "PATH": 181, "ROW": 34, "DATE": 20140708, "ID": 0.0, "Pres_Topo": 1 }, "geometry": { "type": "MultiPolygon", "coordinates": [ [ [ [ 26.497029495661039, 37.538351412800246 ], [ 26.496689930413659, 37.538349966007047 ], [ 26.496691747896634, 37.538079568220695 ], [ 26.494654364279313, 37.538070867042379 ], [ 26.49465071457621, 37.538611662433681 ], [ 26.49464888968809, 37.538882060110609 ], [ 26.494988457241668, 37.53888351279015 ], [ 26.494986633555257, 37.539153910468684 ], [ 26.495326202359326, 37.539155362185959 ], [ 26.495324379874681, 37.539425759866077 ], [ 26.495663949929227, 37.539427210621049 ], [ 26.495662128646366, 37.539697608302788 ], [ 26.4960016999514, 37.53969905809543 ], [ 26.495996239635307, 37.540510251107911 ], [ 26.496335814643199, 37.540511699966338 ], [ 26.4963339957154, 37.54078209762627 ], [ 26.496332176763296, 37.541052495273689 ], [ 26.497350909290077, 37.541056836074659 ], [ 26.497352724563502, 37.540786438385105 ], [ 26.497367245877605, 37.538623256419065 ], [ 26.497027679379858, 37.538621810588168 ], [ 26.497029495661039, 37.538351412800246 ] ] ] ] } },
{ "type": "Feature", "properties": { "FX_CODE": 375, "PATH": 181, "ROW": 34, "DATE": 20140708, "ID": 0.0, "Pres_Topo": 1 }, "geometry": { "type": "MultiPolygon", "coordinates": [ [ [ [ 26.500110854895105, 37.534578817897582 ], [ 26.499092210062141, 37.534574501537143 ], [ 26.499094018624263, 37.534304103477872 ], [ 26.498414924641441, 37.534301221051109 ], [ 26.498416735631039, 37.534030823007313 ], [ 26.498077189901746, 37.534029380343618 ], [ 26.498075377686323, 37.534299778373395 ], [ 26.498073565446695, 37.534570176390694 ], [ 26.498413113627645, 37.534571619082406 ], [ 26.498411302589652, 37.534842017101226 ], [ 26.498750852020663, 37.534843458830714 ], [ 26.499090401475858, 37.534844899583952 ], [ 26.499088592865395, 37.535115297618241 ], [ 26.499428143570629, 37.535116737409247 ], [ 26.499767694300015, 37.535118176223996 ], [ 26.499765888117167, 37.535388574273753 ], [ 26.500105440096565, 37.5353900121262 ], [ 26.500110854895105, 37.534578817897582 ] ] ] ] } },
{ "type": "Feature", "properties": { "FX_CODE": 375, "PATH": 181, "ROW": 34, "DATE": 20140708, "ID": 0.0, "Pres_Topo": 1 }, "geometry": { "type": "MultiPolygon", "coordinates": [ [ [ [ 26.499818257621573, 37.527547025761088 ], [ 26.499821868563476, 37.527006228924897 ], [ 26.500500896556641, 37.527009102788561 ], [ 26.500502699540643, 37.526738704323783 ], [ 26.501181725179418, 37.52674157425578 ], [ 26.50118352568861, 37.526471175750707 ], [ 26.500844014082542, 37.526469741286604 ], [ 26.500845815793014, 37.526199342782988 ], [ 26.500506305436371, 37.526197907356888 ], [ 26.500504502500558, 37.526468305846585 ], [ 26.499146456413719, 37.52646255432709 ], [ 26.499148264250916, 37.526192155893213 ], [ 26.498808754014906, 37.526190715587447 ], [ 26.498810563053286, 37.525920317155091 ], [ 26.499489581098807, 37.525923196762719 ], [ 26.499498613675254, 37.524571204273762 ], [ 26.499159110766826, 37.524569765027792 ], [ 26.499157303074561, 37.524840163536588 ], [ 26.498478294879686, 37.524837282089024 ], [ 26.498480105022434, 37.524566883608188 ], [ 26.498819607882542, 37.524568324805941 ], [ 26.498823225645033, 37.524027527778877 ], [ 26.498483725235374, 37.524026086609126 ], [ 26.498481915141003, 37.52429648511491 ], [ 26.498142413530317, 37.524295042955309 ], [ 26.49813879081853, 37.524835839901414 ], [ 26.497120278780336, 37.524831507483285 ], [ 26.497122093824071, 37.524561109058546 ], [ 26.496782591085083, 37.524559662981439 ], [ 26.496784407329788, 37.52428926455822 ], [ 26.496444905840292, 37.524287817519308 ], [ 26.496437635814807, 37.525369411080973 ], [ 26.496098129448587, 37.525367963009941 ], [ 26.496096310656206, 37.525638361355092 ], [ 26.496435818247711, 37.525639809440186 ], [ 26.496434000656336, 37.525910207786886 ], [ 26.497113018362839, 37.525913101057405 ], [ 26.497111203197818, 37.526183499419716 ], [ 26.497450713312794, 37.526184944605156 ], [ 26.49744527134828, 37.526996139659282 ], [ 26.496766243790432, 37.526993248228301 ], [ 26.496768060253597, 37.526722849917483 ], [ 26.496428547736464, 37.526721402752145 ], [ 26.496424912335083, 37.52726219933318 ], [ 26.496085397391461, 37.527260751163752 ], [ 26.496081759442099, 37.527801547666741 ], [ 26.497779346657119, 37.527808778894624 ], [ 26.497777533773181, 37.528079177197597 ], [ 26.498117052514381, 37.528080620529202 ], [ 26.498113429124757, 37.528621417125713 ], [ 26.497094865621076, 37.528617084118707 ], [ 26.497098496363499, 37.528076287606353 ], [ 26.496758977695038, 37.528074841346722 ], [ 26.496751711211221, 37.52915643426536 ], [ 26.497430758376268, 37.52915932592088 ], [ 26.497427129890834, 37.529700122361412 ], [ 26.497766655960792, 37.529701566753168 ], [ 26.497764842907255, 37.529971964968716 ], [ 26.497085788340467, 37.529969075181114 ], [ 26.497082157258394, 37.53050987151866 ], [ 26.498100746498427, 37.530514204820122 ], [ 26.498102558374828, 37.530243806615516 ], [ 26.498442086944365, 37.530245249083158 ], [ 26.498445708173389, 37.529704452608506 ], [ 26.49810618205499, 37.529703010168838 ], [ 26.498107993858746, 37.529432611926815 ], [ 26.497768468990088, 37.529431168525122 ], [ 26.497772094976003, 37.528890372031533 ], [ 26.498790662301481, 37.528894699224445 ], [ 26.498797899276973, 37.527813105919506 ], [ 26.498458381712819, 37.527811664553852 ], [ 26.498460192121684, 37.527541266210385 ], [ 26.497441643250735, 37.527536936299597 ], [ 26.497443457311615, 37.527266537985668 ], [ 26.497782972352315, 37.527267982251225 ], [ 26.497784785163571, 37.52699758391082 ], [ 26.498124299003081, 37.526999027186392 ], [ 26.498122487417216, 37.527269425540808 ], [ 26.498801517619658, 37.527272309192114 ], [ 26.498799708460396, 37.527542707562034 ], [ 26.49913922482331, 37.527544147937697 ], [ 26.499818257621573, 37.527547025761088 ] ] ] ] } },
{ "type": "Feature", "properties": { "FX_CODE": 375, "PATH": 181, "ROW": 34, "DATE": 20140708, "ID": 0.0, "Pres_Topo": 1 }, "geometry": { "type": "MultiPolygon", "coordinates": [ [ [ [ 26.49784278233485, 37.518344830424731 ], [ 26.49852173163017, 37.518347715103616 ], [ 26.49851992204368, 37.518618113871582 ], [ 26.498859397952486, 37.518619554761521 ], [ 26.498863014651555, 37.51807875718513 ], [ 26.499541961642201, 37.518081635982099 ], [ 26.499545573345284, 37.517540838299858 ], [ 26.49886663125395, 37.517537959558744 ], [ 26.49886482296484, 37.517808358378176 ], [ 26.498525350730585, 37.517806917530201 ], [ 26.498523541192473, 37.518077316323136 ], [ 26.497844594346851, 37.518074431672289 ], [ 26.49784278233485, 37.518344830424731 ] ] ] ] } },
{ "type": "Feature", "properties": { "FX_CODE": 375, "PATH": 181, "ROW": 34, "DATE": 20140708, "ID": 0.0, "Pres_Topo": 1 }, "geometry": { "type": "MultiPolygon", "coordinates": [ [ [ [ 26.497163833136394, 37.518341941843218 ], [ 26.496824358573512, 37.518340496088982 ], [ 26.496822542862677, 37.518610894786853 ], [ 26.496483067099209, 37.518609448042938 ], [ 26.49648488403491, 37.518339049359099 ], [ 26.495805935030553, 37.518336152972338 ], [ 26.49580775439167, 37.518065754304132 ], [ 26.495468281150803, 37.518064304661344 ], [ 26.49546463995453, 37.518605101957135 ], [ 26.49478568864636, 37.51860219968826 ], [ 26.494787511706395, 37.518331801074808 ], [ 26.494108562945414, 37.518328894931521 ], [ 26.494103086342925, 37.519140090649806 ], [ 26.495800476801307, 37.519147348902031 ], [ 26.495802296235368, 37.518876950271284 ], [ 26.497160204140211, 37.518882739254579 ], [ 26.497163833136394, 37.518341941843218 ] ] ] ] } },
{ "type": "Feature", "properties": { "FX_CODE": 375, "PATH": 181, "ROW": 34, "DATE": 20140708, "ID": 0.0, "Pres_Topo": 1 }, "geometry": { "type": "MultiPolygon", "coordinates": [ [ [ [ 26.495136094934132, 37.516981259357891 ], [ 26.495137916623236, 37.516710860655422 ], [ 26.495477383715762, 37.516712311203435 ], [ 26.495484665329847, 37.515630716212343 ], [ 26.495145203136222, 37.515629265720648 ], [ 26.495143381544498, 37.515899664473061 ], [ 26.494464454780886, 37.515896760534858 ], [ 26.494466278822038, 37.515626361810618 ], [ 26.494126816701485, 37.51562490839224 ], [ 26.494119515491771, 37.516706503157785 ], [ 26.49378004849671, 37.516705048707387 ], [ 26.493778221908531, 37.516975447353445 ], [ 26.493438753713114, 37.516973991913311 ], [ 26.493440581526059, 37.516703593281385 ], [ 26.49310111457984, 37.516702136879807 ], [ 26.493099285542122, 37.516972535497565 ], [ 26.492759817395569, 37.516971078106224 ], [ 26.492761647658043, 37.516700679502627 ], [ 26.492082713887875, 37.516697761821447 ], [ 26.492079048439354, 37.517238558959548 ], [ 26.491739579141449, 37.517237098627199 ], [ 26.491743247039505, 37.516696301517449 ], [ 26.491403780215656, 37.516694840237882 ], [ 26.491405615352669, 37.51642444167846 ], [ 26.491066149778081, 37.516422979437472 ], [ 26.491067986115311, 37.516152580879762 ], [ 26.49072852178999, 37.516151117677431 ], [ 26.490726684228036, 37.51642151622093 ], [ 26.490387218702537, 37.516420052028785 ], [ 26.489708287725296, 37.516417120717733 ], [ 26.489697239791678, 37.518039511460451 ], [ 26.492413023079745, 37.518051213972271 ], [ 26.49241485466489, 37.517780815432765 ], [ 26.493433270127724, 37.517785187734134 ], [ 26.49343144221708, 37.518055586316116 ], [ 26.494110388430787, 37.518058496333765 ], [ 26.494115864740557, 37.517247300465627 ], [ 26.494794803702938, 37.517250206496087 ], [ 26.494796626641172, 37.516979807820199 ], [ 26.495136094934132, 37.516981259357891 ] ] ] ] } },
{ "type": "Feature", "properties": { "FX_CODE": 375, "PATH": 181, "ROW": 34, "DATE": 20140708, "ID": 0.0, "Pres_Topo": 1 }, "geometry": { "type": "MultiPolygon", "coordinates": [ [ [ [ 26.504291015768842, 37.518642476309829 ], [ 26.504296381988048, 37.517831279258878 ], [ 26.503956909369123, 37.51782985402113 ], [ 26.503960489178716, 37.517289055952425 ], [ 26.504299959347996, 37.51729048116249 ], [ 26.504301747992123, 37.517020082095556 ], [ 26.503622810127066, 37.517017230727504 ], [ 26.503619227915713, 37.517558028793481 ], [ 26.502940285247192, 37.517555173467507 ], [ 26.502933110738457, 37.518636769338798 ], [ 26.504291015768842, 37.518642476309829 ] ] ] ] } },
{ "type": "Feature", "properties": { "FX_CODE": 375, "PATH": 181, "ROW": 34, "DATE": 20140708, "ID": 0.0, "Pres_Topo": 1 }, "geometry": { "type": "MultiPolygon", "coordinates": [ [ [ [ 26.543721460484839, 37.510418765046232 ], [ 26.54371652237149, 37.511229967767484 ], [ 26.543377077705749, 37.51122865602396 ], [ 26.543375430399504, 37.511499056893364 ], [ 26.543367193538092, 37.512851061053283 ], [ 26.544046097585735, 37.512853683717644 ], [ 26.544051032421393, 37.512042481182732 ], [ 26.544390480804573, 37.512043791013532 ], [ 26.544398698968717, 37.510691786475647 ], [ 26.544059256707889, 37.510690476708433 ], [ 26.544060901499254, 37.510420075776146 ], [ 26.543721460484839, 37.510418765046232 ] ] ] ] } },
{ "type": "Feature", "properties": { "FX_CODE": 375, "PATH": 181, "ROW": 34, "DATE": 20140708, "ID": 0.0, "Pres_Topo": 1 }, "geometry": { "type": "MultiPolygon", "coordinates": [ [ [ [ 26.536218627053032, 37.51606809297364 ], [ 26.535539694634306, 37.51606542512625 ], [ 26.535536342867783, 37.51660622581241 ], [ 26.535875811515492, 37.51660756024981 ], [ 26.535870787372176, 37.517418761224327 ], [ 26.536549732083579, 37.517421427249957 ], [ 26.536548059774063, 37.517691827575753 ], [ 26.536887533388136, 37.517693159138027 ], [ 26.536889204472804, 37.517422758799334 ], [ 26.536890875535146, 37.517152358448165 ], [ 26.536211933228689, 37.517149694399677 ], [ 26.536213606718317, 37.516879294061859 ], [ 26.53655307663556, 37.516880626560983 ], [ 26.536556421098179, 37.516339825822122 ], [ 26.536216953630493, 37.516338493348854 ], [ 26.536218627053032, 37.51606809297364 ] ] ] ] } },
{ "type": "Feature", "properties": { "FX_CODE": 375, "PATH": 181, "ROW": 34, "DATE": 20140708, "ID": 0.0, "Pres_Topo": 1 }, "geometry": { "type": "MultiPolygon", "coordinates": [ [ [ [ 26.506932088991203, 37.530010594971777 ], [ 26.506592561047249, 37.530009176919798 ], [ 26.506588998597987, 37.530549974035935 ], [ 26.506249468226674, 37.530548554980342 ], [ 26.506247685740711, 37.5308189535059 ], [ 26.505908154167589, 37.530817533460421 ], [ 26.505906370432193, 37.53108793195976 ], [ 26.505566837657266, 37.531086510924396 ], [ 26.505563267663646, 37.53162730785796 ], [ 26.505223732461275, 37.531625885818876 ], [ 26.505221946203001, 37.531896284253129 ], [ 26.505214800931196, 37.532977877865299 ], [ 26.504875259624125, 37.532976454781014 ], [ 26.504878834759243, 37.532435658027531 ], [ 26.50453929592754, 37.532434233994749 ], [ 26.504532140658739, 37.533515827396442 ], [ 26.504871684393461, 37.533517251484561 ], [ 26.504873472020734, 37.533246853139033 ], [ 26.505892099690826, 37.533251119504754 ], [ 26.506231642295216, 37.533252539674287 ], [ 26.506236990324783, 37.532441344397185 ], [ 26.506242338139948, 37.531630149007739 ], [ 26.506581873413833, 37.531631568118435 ], [ 26.506580092058289, 37.531901966607847 ], [ 26.507259165128822, 37.531904801928391 ], [ 26.507260944033018, 37.531634403411445 ], [ 26.506921408711527, 37.531632986253001 ], [ 26.506932088991203, 37.530010594971777 ] ] ] ] } },
{ "type": "Feature", "properties": { "FX_CODE": 375, "PATH": 181, "ROW": 34, "DATE": 20140708, "ID": 0.0, "Pres_Topo": 1 }, "geometry": { "type": "MultiPolygon", "coordinates": [ [ [ [ 26.507515124006936, 37.544614934984267 ], [ 26.508873501030315, 37.544620592587748 ], [ 26.508871727117, 37.544890990574089 ], [ 26.509211322658622, 37.544892402547198 ], [ 26.509213095345466, 37.544622004547143 ], [ 26.509552689684305, 37.544623415529998 ], [ 26.509559775289073, 37.543541823350189 ], [ 26.509899364745866, 37.543543233301691 ], [ 26.509901134861494, 37.54327283521183 ], [ 26.508203193946333, 37.543265775757412 ], [ 26.507524017746309, 37.543262945139887 ], [ 26.507522239045986, 37.543533343133753 ], [ 26.507520460321885, 37.543803741115106 ], [ 26.507860050862799, 37.543805156939612 ], [ 26.507858273341345, 37.54407555492223 ], [ 26.507518681574005, 37.544074139083982 ], [ 26.507515124006936, 37.544614934984267 ] ] ] ] } },
{ "type": "Feature", "properties": { "FX_CODE": 375, "PATH": 181, "ROW": 34, "DATE": 20140708, "ID": 0.0, "Pres_Topo": 1 }, "geometry": { "type": "MultiPolygon", "coordinates": [ [ [ [ 26.51124183485727, 37.545982446080906 ], [ 26.511581435470426, 37.545983851272439 ], [ 26.511583199666276, 37.545713453226647 ], [ 26.511243600279659, 37.545712048048763 ], [ 26.511245365678455, 37.54544165000415 ], [ 26.509886973274131, 37.545436019581061 ], [ 26.509888743555347, 37.545165621578583 ], [ 26.509549146739882, 37.545164211544964 ], [ 26.50954737523216, 37.545434609533743 ], [ 26.508528581248349, 37.54543037353217 ], [ 26.508526806037398, 37.545700771467338 ], [ 26.508187206863692, 37.545699357499849 ], [ 26.508185430402477, 37.545969755408812 ], [ 26.508525030802712, 37.545971169389993 ], [ 26.509204231674339, 37.545973994422503 ], [ 26.509206004455947, 37.5457035964724 ], [ 26.509545603700758, 37.54570500751003 ], [ 26.510564401577199, 37.545709234763123 ], [ 26.510904000916632, 37.545710641894281 ], [ 26.510902234267697, 37.545981039912775 ], [ 26.51124183485727, 37.545982446080906 ] ] ] ] } },
{ "type": "Feature", "properties": { "FX_CODE": 375, "PATH": 181, "ROW": 34, "DATE": 20140708, "ID": 0.0, "Pres_Topo": 1 }, "geometry": { "type": "MultiPolygon", "coordinates": [ [ [ [ 26.501966470930501, 37.561897576598149 ], [ 26.502306143295083, 37.561899008978614 ], [ 26.502309740731032, 37.561358215091325 ], [ 26.501970070821411, 37.56135678273867 ], [ 26.50197367061612, 37.560815988829205 ], [ 26.502313338070817, 37.560817421154084 ], [ 26.502318733900207, 37.560006230154521 ], [ 26.501979070127746, 37.560004797871343 ], [ 26.501977270314597, 37.560275194869774 ], [ 26.500958275459407, 37.56027089211581 ], [ 26.500960078954751, 37.560000495159123 ], [ 26.500620415278604, 37.55999905896747 ], [ 26.500622219977224, 37.559728662012255 ], [ 26.500282557552577, 37.55972722485744 ], [ 26.50027713970216, 37.560538415643819 ], [ 26.500956471939947, 37.560541289059984 ], [ 26.500954668396393, 37.560811685991673 ], [ 26.501294335778887, 37.560813121248003 ], [ 26.501290731074373, 37.561353915101797 ], [ 26.501630400935856, 37.561355349408778 ], [ 26.50162859977495, 37.561625746330897 ], [ 26.501626798589964, 37.561896143240496 ], [ 26.501966470930501, 37.561897576598149 ] ] ] ] } },
{ "type": "Feature", "properties": { "FX_CODE": 375, "PATH": 181, "ROW": 34, "DATE": 20140708, "ID": 0.0, "Pres_Topo": 1 }, "geometry": { "type": "MultiPolygon", "coordinates": [ [ [ [ 26.500598757013691, 37.563243821456076 ], [ 26.498900365345943, 37.563236625003071 ], [ 26.498898554195783, 37.563507021726096 ], [ 26.498896743021419, 37.563777418436636 ], [ 26.498894931822839, 37.564047815134685 ], [ 26.499234613790875, 37.564049256421697 ], [ 26.499232803795724, 37.564319653121245 ], [ 26.499572487015588, 37.564321093445017 ], [ 26.499570678223908, 37.56459149014605 ], [ 26.500250047191454, 37.56459436788964 ], [ 26.500246434446311, 37.565135161310117 ], [ 26.499906747495093, 37.565133722899034 ], [ 26.499904939858599, 37.565404119576556 ], [ 26.499565251703835, 37.565402680174202 ], [ 26.499563442815464, 37.565673076825277 ], [ 26.499223753457159, 37.565671636431645 ], [ 26.499221943316869, 37.565942033056253 ], [ 26.499561633902925, 37.565943473463868 ], [ 26.499559824966198, 37.56621387008996 ], [ 26.499558016005288, 37.566484266703561 ], [ 26.49989770907105, 37.566485706161785 ], [ 26.499895901313756, 37.566756102776871 ], [ 26.500235595631459, 37.566757541271713 ], [ 26.500233789077818, 37.567027937888263 ], [ 26.500573484647475, 37.5670293754197 ], [ 26.500577095275009, 37.566488582146199 ], [ 26.500237402160959, 37.566487144642679 ], [ 26.500239208666315, 37.566216748001153 ], [ 26.500244628037517, 37.565405558001622 ], [ 26.500584316240584, 37.565406995449329 ], [ 26.500587926578611, 37.564866202025968 ], [ 26.500927612350409, 37.56486763846852 ], [ 26.500929416255559, 37.564597241724151 ], [ 26.501608785416089, 37.564600111649504 ], [ 26.501614189621041, 37.563788921257945 ], [ 26.501953870554498, 37.563790354712985 ], [ 26.502293551512015, 37.563791787190766 ], [ 26.50229714928453, 37.563250993478306 ], [ 26.500598757013691, 37.563243821456076 ] ] ] ] } },
{ "type": "Feature", "properties": { "FX_CODE": 375, "PATH": 181, "ROW": 34, "DATE": 20140708, "ID": 0.0, "Pres_Topo": 1 }, "geometry": { "type": "MultiPolygon", "coordinates": [ [ [ [ 26.52219312101872, 37.586047138731367 ], [ 26.522198306034845, 37.585235948804993 ], [ 26.52151874729276, 37.58523319607918 ], [ 26.521517016519272, 37.585503592707077 ], [ 26.520497674892852, 37.585499456243149 ], [ 26.520495940409351, 37.58576985281843 ], [ 26.521855067540017, 37.58577536620114 ], [ 26.521853337949246, 37.586045762817442 ], [ 26.52219312101872, 37.586047138731367 ] ] ] ] } },
{ "type": "Feature", "properties": { "FX_CODE": 375, "PATH": 181, "ROW": 34, "DATE": 20140708, "ID": 0.0, "Pres_Topo": 1 }, "geometry": { "type": "MultiPolygon", "coordinates": [ [ [ [ 26.516098033574345, 37.5827774651612 ], [ 26.516096283348354, 37.583047861686467 ], [ 26.516078779801759, 37.585751826252256 ], [ 26.516418561247036, 37.585753218779367 ], [ 26.518457250409128, 37.58576155340343 ], [ 26.518460734100348, 37.585220760401441 ], [ 26.518120954972936, 37.585219373769391 ], [ 26.518122698012533, 37.58494897726311 ], [ 26.517103364456908, 37.584944811539373 ], [ 26.517106857839622, 37.58440401857019 ], [ 26.516767082492212, 37.584402628066606 ], [ 26.51677756945309, 37.582780248940288 ], [ 26.516098033574345, 37.5827774651612 ] ], [ [ 26.516767082492212, 37.584402628066606 ], [ 26.516760090717725, 37.585484213901061 ], [ 26.516420310478026, 37.585482822365464 ], [ 26.516427307168165, 37.584401236585023 ], [ 26.516767082492212, 37.584402628066606 ] ] ] ] } },
{ "type": "Feature", "properties": { "FX_CODE": 375, "PATH": 181, "ROW": 34, "DATE": 20140708, "ID": 0.0, "Pres_Topo": 1 }, "geometry": { "type": "MultiPolygon", "coordinates": [ [ [ [ 26.523202121832369, 37.587673640360606 ], [ 26.523203846645561, 37.58740324376587 ], [ 26.522864057361687, 37.587401870719454 ], [ 26.522860605254088, 37.587942663869754 ], [ 26.522520813535127, 37.587941289818566 ], [ 26.522517358877025, 37.588482082892305 ], [ 26.52250353932104, 37.590645254687693 ], [ 26.522843343331822, 37.5906466288722 ], [ 26.522838164305231, 37.591457818129435 ], [ 26.523517779771755, 37.591460563643736 ], [ 26.523512607913517, 37.592271752868534 ], [ 26.523852419369373, 37.592273124198243 ], [ 26.523855864839206, 37.591732331367574 ], [ 26.524195673859381, 37.591733701692448 ], [ 26.524200838203527, 37.590922512312936 ], [ 26.52386103287127, 37.59092114202798 ], [ 26.523866200696105, 37.590109952575979 ], [ 26.523526399074647, 37.590108581352737 ], [ 26.523529846634524, 37.589567788348901 ], [ 26.523190047494541, 37.589566416174044 ], [ 26.523193497420618, 37.589025623146931 ], [ 26.523198672136832, 37.588214433512583 ], [ 26.523202121832369, 37.587673640360606 ] ] ] ] } },
{ "type": "Feature", "properties": { "FX_CODE": 375, "PATH": 181, "ROW": 34, "DATE": 20140708, "ID": 0.0, "Pres_Topo": 1 }, "geometry": { "type": "MultiPolygon", "coordinates": [ [ [ [ 26.524526881349015, 37.593087053154932 ], [ 26.524530322039428, 37.592546260346069 ], [ 26.523850696599915, 37.592543520594816 ], [ 26.523847250991917, 37.593084313350538 ], [ 26.524526881349015, 37.593087053154932 ] ] ] ] } },
{ "type": "Feature", "properties": { "FX_CODE": 375, "PATH": 181, "ROW": 34, "DATE": 20140708, "ID": 0.0, "Pres_Topo": 1 }, "geometry": { "type": "MultiPolygon", "coordinates": [ [ [ [ 26.531651143218703, 37.595008361219193 ], [ 26.531654532591357, 37.594467568031483 ], [ 26.530974888980431, 37.594464869184399 ], [ 26.530979980246393, 37.593653679387749 ], [ 26.530300344103065, 37.593650976706009 ], [ 26.530298644578171, 37.593921373291167 ], [ 26.529958825311116, 37.593920020469689 ], [ 26.529957124534025, 37.594190417029232 ], [ 26.530296945030564, 37.594191769863826 ], [ 26.530295245460231, 37.594462166424009 ], [ 26.530293545867181, 37.594732562971721 ], [ 26.530633368845443, 37.594733914854217 ], [ 26.530631670459208, 37.595004311402541 ], [ 26.530971494689691, 37.595005662319807 ], [ 26.530963008565891, 37.596357644939701 ], [ 26.531302838966944, 37.596358994944069 ], [ 26.531301142903747, 37.596629391443706 ], [ 26.531299446817883, 37.596899787930845 ], [ 26.531639279700869, 37.596901136982993 ], [ 26.531632500049454, 37.597982722859058 ], [ 26.531972337873835, 37.597984070985085 ], [ 26.531970644134066, 37.59825446743595 ], [ 26.532310483210807, 37.598255814596605 ], [ 26.532308790678155, 37.598526211048068 ], [ 26.533328311733285, 37.59853024669826 ], [ 26.534007992549608, 37.598532932239287 ], [ 26.534004619714079, 37.599073725235179 ], [ 26.534344462615593, 37.599075066563998 ], [ 26.53435120327747, 37.59799348047023 ], [ 26.534691041282496, 37.597994820768534 ], [ 26.53469272516195, 37.597724424200841 ], [ 26.534694409018879, 37.597454027620714 ], [ 26.534354573473266, 37.597452687348436 ], [ 26.534356258537379, 37.597182290768806 ], [ 26.533676589973062, 37.597179607314899 ], [ 26.53367490244959, 37.597450003868495 ], [ 26.533335066971592, 37.597448660660866 ], [ 26.533338444455303, 37.596907867567253 ], [ 26.532998611459217, 37.596906523407256 ], [ 26.532318945534804, 37.596903832151973 ], [ 26.532322330306044, 37.596363039086739 ], [ 26.53164266939066, 37.596360343970041 ], [ 26.531644364201576, 37.596089947444852 ], [ 26.531304535007461, 37.596088598431955 ], [ 26.531311318942873, 37.595007012258669 ], [ 26.531651143218703, 37.595008361219193 ] ] ] ] } },
{ "type": "Feature", "properties": { "FX_CODE": 375, "PATH": 181, "ROW": 34, "DATE": 20140708, "ID": 0.0, "Pres_Topo": 1 }, "geometry": { "type": "MultiPolygon", "coordinates": [ [ [ [ 26.517687960993083, 37.65227732169906 ], [ 26.517673969532428, 37.654440468517613 ], [ 26.518014063805246, 37.654441858597011 ], [ 26.518017559344432, 37.653901071940375 ], [ 26.518357651174348, 37.653902461012379 ], [ 26.518361144153893, 37.653361674278827 ], [ 26.51870123354098, 37.653363062343495 ], [ 26.518706469136021, 37.652551882109101 ], [ 26.5183663834481, 37.652550494084807 ], [ 26.518368129832822, 37.65228010066182 ], [ 26.517687960993083, 37.65227732169906 ] ] ] ] } },
{ "type": "Feature", "properties": { "FX_CODE": 375, "PATH": 181, "ROW": 34, "DATE": 20140708, "ID": 0.0, "Pres_Topo": 1 }, "geometry": { "type": "MultiPolygon", "coordinates": [ [ [ [ 26.524503446269375, 37.650141785100296 ], [ 26.524506894212017, 37.649600997535323 ], [ 26.524846966754968, 37.649602367766647 ], [ 26.524848689458864, 37.64933197395213 ], [ 26.525188760791998, 37.649333343189902 ], [ 26.525192203665078, 37.648792555496854 ], [ 26.525532272555573, 37.648793923727823 ], [ 26.525537432994277, 37.647982742054772 ], [ 26.524857302632995, 37.647980004692208 ], [ 26.524855580044228, 37.648250398569189 ], [ 26.524515513665353, 37.648249028404287 ], [ 26.524513789820773, 37.648519422255475 ], [ 26.524173722232163, 37.648518051097085 ], [ 26.524171997131756, 37.648788444922467 ], [ 26.523491859558138, 37.648785699638324 ], [ 26.523490131969044, 37.649056093424583 ], [ 26.523150061984047, 37.649054719298846 ], [ 26.523144875379639, 37.649865900542771 ], [ 26.52348494906316, 37.649867274708519 ], [ 26.523483221381682, 37.650137668444827 ], [ 26.523143146465284, 37.650136294265771 ], [ 26.523136230576714, 37.651217869032791 ], [ 26.523476310424794, 37.651219243265174 ], [ 26.523471126964594, 37.652030424249254 ], [ 26.523131043417603, 37.652029049976925 ], [ 26.523124126881825, 37.653110624394145 ], [ 26.522784038425804, 37.653109249088089 ], [ 26.522782308000998, 37.65337964264782 ], [ 26.521081859902861, 37.653372751344797 ], [ 26.521078386652867, 37.65391353829316 ], [ 26.521418478692311, 37.653914918541339 ], [ 26.521416743265625, 37.654185312010171 ], [ 26.521756836561401, 37.654186691291301 ], [ 26.521755102344635, 37.654457084760999 ], [ 26.523115480692002, 37.654462592134578 ], [ 26.523113751384678, 37.654732985645175 ], [ 26.523453847262513, 37.654734360050803 ], [ 26.523793943163451, 37.654735733475952 ], [ 26.523795670004453, 37.65446533993871 ], [ 26.524135764695309, 37.654466712370095 ], [ 26.524139215841796, 37.653925925231491 ], [ 26.52447930808945, 37.653927296655844 ], [ 26.524481032394991, 37.653656903054483 ], [ 26.524140941380431, 37.653655531643444 ], [ 26.524146117857956, 37.652844350804372 ], [ 26.524486205173272, 37.652845722175527 ], [ 26.524498274182541, 37.650952966354019 ], [ 26.523818116836875, 37.650950222817549 ], [ 26.523821569849485, 37.650409435380759 ], [ 26.524161646044952, 37.650410807612552 ], [ 26.524163371283738, 37.65014041386209 ], [ 26.524503446269375, 37.650141785100296 ] ] ] ] } },
{ "type": "Feature", "properties": { "FX_CODE": 375, "PATH": 181, "ROW": 34, "DATE": 20140708, "ID": 0.0, "Pres_Topo": 1 }, "geometry": { "type": "MultiPolygon", "coordinates": [ [ [ [ 26.528362238064691, 37.63149959410849 ], [ 26.528365655730315, 37.630958804528575 ], [ 26.528025667985752, 37.630957445009997 ], [ 26.528029088023416, 37.630416655406506 ], [ 26.527689102765123, 37.630415294934735 ], [ 26.527692525174693, 37.629874505307669 ], [ 26.527352542402621, 37.629873143882669 ], [ 26.527354254804745, 37.629602749063629 ], [ 26.5270142732872, 37.629601386672256 ], [ 26.527015986898064, 37.629330991853934 ], [ 26.52599604617782, 37.629326898842102 ], [ 26.525994328872084, 37.629597293620755 ], [ 26.525654347446263, 37.629595927311122 ], [ 26.525652628885904, 37.629866322064018 ], [ 26.526332594223788, 37.629869053730232 ], [ 26.526330878103799, 37.63013944849714 ], [ 26.526670862038817, 37.630140812874096 ], [ 26.526664002256222, 37.631222391869763 ], [ 26.52700399114098, 37.631223755320022 ], [ 26.52700227736976, 37.631494150050919 ], [ 26.528362238064691, 37.63149959410849 ] ] ] ] } },
{ "type": "Feature", "properties": { "FX_CODE": 375, "PATH": 181, "ROW": 34, "DATE": 20140708, "ID": 0.0, "Pres_Topo": 1 }, "geometry": { "type": "MultiPolygon", "coordinates": [ [ [ [ 26.541199433277583, 37.589637793523003 ], [ 26.541201093104561, 37.589367396323155 ], [ 26.54052149495266, 37.58936475275074 ], [ 26.540514845677759, 37.590446341372619 ], [ 26.539835237780871, 37.59044369378482 ], [ 26.539831908092989, 37.590984487969486 ], [ 26.54085132734734, 37.59098845796094 ], [ 26.540852988514537, 37.590718060836316 ], [ 26.541192793747793, 37.590719382197541 ], [ 26.541199433277583, 37.589637793523003 ] ] ] ] } },
{ "type": "Feature", "properties": { "FX_CODE": 375, "PATH": 181, "ROW": 34, "DATE": 20140708, "ID": 0.0, "Pres_Topo": 1 }, "geometry": { "type": "MultiPolygon", "coordinates": [ [ [ [ 26.488867015993357, 37.540209202164512 ], [ 26.488527442750563, 37.540207731838883 ], [ 26.48853483092725, 37.539126142327831 ], [ 26.488195262613726, 37.539124671082909 ], [ 26.488178627625096, 37.541558247073255 ], [ 26.488857786348184, 37.54156118884368 ], [ 26.488867015993357, 37.540209202164512 ] ] ] ] } },
{ "type": "Feature", "properties": { "FX_CODE": 375, "PATH": 181, "ROW": 34, "DATE": 20140708, "ID": 0.0, "Pres_Topo": 1 }, "geometry": { "type": "MultiPolygon", "coordinates": [ [ [ [ 26.489856624170976, 37.594294308672069 ], [ 26.490196443101073, 37.594295776962554 ], [ 26.490201976971974, 37.593484592087314 ], [ 26.48918253132064, 37.593480184409202 ], [ 26.489178834721461, 37.594020974252999 ], [ 26.489518652372745, 37.594022444485844 ], [ 26.489516805265552, 37.594292839403259 ], [ 26.489856624170976, 37.594294308672069 ] ] ] ] } },
{ "type": "Feature", "properties": { "FX_CODE": 375, "PATH": 181, "ROW": 34, "DATE": 20140708, "ID": 0.0, "Pres_Topo": 1 }, "geometry": { "type": "MultiPolygon", "coordinates": [ [ [ [ 26.488827919327431, 37.595641872187699 ], [ 26.488488094348615, 37.595640399912547 ], [ 26.488486243404626, 37.595910794712182 ], [ 26.488484392435897, 37.596181189499276 ], [ 26.488482541442426, 37.596451584273908 ], [ 26.488822370109947, 37.596453056591933 ], [ 26.488820520321337, 37.596723451368341 ], [ 26.489160350243189, 37.596724922722274 ], [ 26.489167744330974, 37.595643343484511 ], [ 26.488827919327431, 37.595641872187699 ] ] ] ] } },
{ "type": "Feature", "properties": { "FX_CODE": 375, "PATH": 181, "ROW": 34, "DATE": 20140708, "ID": 0.0, "Pres_Topo": 1 }, "geometry": { "type": "MultiPolygon", "coordinates": [ [ [ [ 26.425935808437266, 37.598597553081134 ], [ 26.42593996337078, 37.598056769324145 ], [ 26.426279795816452, 37.598058421774454 ], [ 26.426283948179645, 37.597517637935347 ], [ 26.425944118193218, 37.597515985517106 ], [ 26.425946195562787, 37.597245593594756 ], [ 26.42560636683373, 37.59724394021417 ], [ 26.425604288234563, 37.597514332120447 ], [ 26.425264458303687, 37.597512677745407 ], [ 26.425262378447126, 37.597783069623091 ], [ 26.424922547314431, 37.59778141425361 ], [ 26.42492046620044, 37.598051806102745 ], [ 26.425600130952873, 37.598055115895427 ], [ 26.42559805227037, 37.598325507764152 ], [ 26.425258218650594, 37.598323853340972 ], [ 26.425249898723933, 37.599405420626447 ], [ 26.425589737262445, 37.599407075113838 ], [ 26.425595973560057, 37.598595899620342 ], [ 26.425935808437266, 37.598597553081134 ] ] ] ] } },
{ "type": "Feature", "properties": { "FX_CODE": 375, "PATH": 181, "ROW": 34, "DATE": 20140708, "ID": 0.0, "Pres_Topo": 1 }, "geometry": { "type": "MultiPolygon", "coordinates": [ [ [ [ 26.403331001543076, 37.577934873192717 ], [ 26.402991261969298, 37.577933155444512 ], [ 26.40300421495304, 37.576310804986647 ], [ 26.402664482778178, 37.576309086360816 ], [ 26.402662322791389, 37.576579478118404 ], [ 26.401643122755189, 37.576574316324979 ], [ 26.401634467779161, 37.577655883029848 ], [ 26.401630140117621, 37.57819666630715 ], [ 26.401969880804305, 37.578198387982837 ], [ 26.401972043421122, 37.577927996333727 ], [ 26.402311782908299, 37.577929717015017 ], [ 26.40230962151988, 37.578200108680811 ], [ 26.402649362264349, 37.578201828401085 ], [ 26.402647202075467, 37.578472220071042 ], [ 26.40230746010257, 37.578470500334078 ], [ 26.402303137181303, 37.57901128360303 ], [ 26.402642881611076, 37.579013003373376 ], [ 26.403322370557227, 37.579016439980848 ], [ 26.403331001543076, 37.577934873192717 ] ] ] ] } },
{ "type": "Feature", "properties": { "FX_CODE": 375, "PATH": 181, "ROW": 34, "DATE": 20140708, "ID": 0.0, "Pres_Topo": 1 }, "geometry": { "type": "MultiPolygon", "coordinates": [ [ [ [ 26.400001541274825, 37.527082093720111 ], [ 26.400003707013273, 37.526811699821742 ], [ 26.400343214424566, 37.526813424180958 ], [ 26.400345378908792, 37.526543030253301 ], [ 26.400684885123713, 37.526544753619845 ], [ 26.400691374727103, 37.525733571711662 ], [ 26.400351872187922, 37.525731848395289 ], [ 26.400358365206742, 37.524920666424613 ], [ 26.400018866372104, 37.524918942182595 ], [ 26.400023197357044, 37.52437815417305 ], [ 26.399344204675259, 37.524374702828524 ], [ 26.399346372574595, 37.524104308838481 ], [ 26.399006877502284, 37.524102581719276 ], [ 26.39901121566427, 37.523561793735141 ], [ 26.399350708286356, 37.523563520820829 ], [ 26.399352876098792, 37.523293126793227 ], [ 26.399013384701803, 37.5232913997243 ], [ 26.399015553710321, 37.523021005700961 ], [ 26.398676063567379, 37.523019277673022 ], [ 26.398682574094188, 37.522208095578222 ], [ 26.398343087655366, 37.522206366624872 ], [ 26.398334401994774, 37.523287942659138 ], [ 26.398673893333779, 37.52328967167962 ], [ 26.398663041730732, 37.524641641524724 ], [ 26.399002539224345, 37.524643369653312 ], [ 26.399000370041904, 37.524913763601546 ], [ 26.399339868789678, 37.524915490771072 ], [ 26.3993355327882, 37.52545627866354 ], [ 26.398996031590052, 37.525454551460491 ], [ 26.398983015538757, 37.527076914736867 ], [ 26.400001541274825, 37.527082093720111 ] ] ] ] } },
{ "type": "Feature", "properties": { "FX_CODE": 375, "PATH": 181, "ROW": 34, "DATE": 20140708, "ID": 0.0, "Pres_Topo": 1 }, "geometry": { "type": "MultiPolygon", "coordinates": [ [ [ [ 26.48192584456033, 37.561811336539904 ], [ 26.478189466126167, 37.561794881672327 ], [ 26.478193237863657, 37.561254089806098 ], [ 26.477174233456587, 37.561249581681871 ], [ 26.477168564765314, 37.562060769331268 ], [ 26.476828892997684, 37.562059264625084 ], [ 26.476823220396547, 37.562870452118183 ], [ 26.476483544971643, 37.562868946390985 ], [ 26.476481652826507, 37.563139342182424 ], [ 26.47614197619934, 37.563137835463408 ], [ 26.476140082801347, 37.563408231227726 ], [ 26.475800404971917, 37.56340672351682 ], [ 26.475798510321031, 37.563677119254017 ], [ 26.475796615644825, 37.563947514978693 ], [ 26.476136295929443, 37.563949022718838 ], [ 26.476475976239378, 37.563950529481744 ], [ 26.476477868460378, 37.5636801337278 ], [ 26.476817547567979, 37.563681639498832 ], [ 26.476811874511966, 37.564492826767029 ], [ 26.477491240168703, 37.56449583546496 ], [ 26.477485574251212, 37.565307022708275 ], [ 26.477483685561573, 37.565577418431033 ], [ 26.477823373338506, 37.565578921372477 ], [ 26.477821485851337, 37.565849317097332 ], [ 26.478161174881222, 37.565850819076033 ], [ 26.478159288596565, 37.566121214802955 ], [ 26.478838669187407, 37.566124215857556 ], [ 26.478842436820617, 37.565583424332935 ], [ 26.479182124698365, 37.565584923365158 ], [ 26.479191537202457, 37.564232944262166 ], [ 26.479870900756701, 37.564235939249365 ], [ 26.479869020761473, 37.564506335124008 ], [ 26.480208703803939, 37.564507831166253 ], [ 26.480214340031377, 37.563696643461256 ], [ 26.480554019416076, 37.563698138482671 ], [ 26.480555896880755, 37.563427742541521 ], [ 26.481235253270249, 37.563430729623697 ], [ 26.481239003214068, 37.562889937645892 ], [ 26.481578678991283, 37.562891429692193 ], [ 26.481918354793528, 37.562892920761257 ], [ 26.48192584456033, 37.561811336539904 ] ] ] ] } }
]
}
